[{"OBJECT_NAME":"STARLINK-5366","OBJECT_ID":"2023-015BC","EPOCH":"2026-03-09T22:00:01.999584","MEAN_MOTION":15.10656618,"ECCENTRICITY":0.0001153,"INCLINATION":43,"RA_OF_ASC_NODE":337.0237,"ARG_OF_PERICENTER":313.1133,"MEAN_ANOMALY":150.3814,"EPHEMERIS_TYPE":0,"CLASSIFICATION_TYPE":"U","NORAD_CAT_ID":55499,"ELEMENT_SET_NO":999,"REV_AT_EPOCH":573,"BSTAR":0.0027116934,"MEAN_MOTION_DOT":0.00045719,"MEAN_MOTION_DDOT":0},{"OBJECT_NAME":"OBJECT D","OBJECT_ID":"2025-013D","EPOCH":"2026-03-09T22:45:56.369376","MEAN_MOTION":15.10588544,"ECCENTRICITY":0.0008827,"INCLINATION":97.6457,"RA_OF_ASC_NODE":238.3603,"ARG_OF_PERICENTER":18.3993,"MEAN_ANOMALY":341.7554,"EPHEMERIS_TYPE":0,"CLASSIFICATION_TYPE":"U","NORAD_CAT_ID":62732,"ELEMENT_SET_NO":999,"REV_AT_EPOCH":6229,"BSTAR":0.00036300228,"MEAN_MOTION_DOT":5.935e-5,"MEAN_MOTION_DDOT":0}]
